start=new Date('2022-10-20T00:00:00.000Z').valueOf();
sats=[{"EPOCH":"2022-10-19T10:09:19.143936","ECCENTRICITY":"0.00021190","EPHEMERIS_TYPE":"0","REV_AT_EPOCH":"7871","SEMIMAJOR_AXIS":"6925.355","DECAY_DATE":null,"INCLINATION":"53.0551","CLASSIFICATION_TYPE":"U","NORAD_CAT_ID":"48577","COUNTRY_CODE":"US","ARG_OF_PERICENTER":"45.1047","BSTAR":"0.00007560300000","GP_ID":"215580414","SITE":"AFETR","RCS_SIZE":"LARGE","TLE_LINE1":"1 48577U 21041AA  22292.42313824  .00000844  00000-0  75603-4 0  9994","RA_OF_ASC_NODE":"285.9197","MEAN_ELEMENT_THEORY":"SGP4","MEAN_MOTION":"15.06397850","TIME_SYSTEM":"UTC","ELEMENT_SET_NO":"999","LAUNCH_DATE":"2021-05-15","OBJECT_TYPE":"PAYLOAD","REF_FRAME":"TEME","FILE":"3623062","CENTER_NAME":"EARTH","MEAN_MOTION_DDOT":"0.0000000000000","PERIAPSIS":"545.753","PERIOD":"95.592","TLE_LINE2":"2 48577  53.0551 285.9197 0002119  45.1047 315.0114 15.06397850 78719","APOAPSIS":"548.688","OBJECT_ID":"2021-041AA","OBJECT_NAME":"STARLINK-2231","MEAN_ANOMALY":"315.0114","MEAN_MOTION_DOT":"0.00000844"},{"TIME_SYSTEM":"UTC","MEAN_MOTION":"15.06396329","CENTER_NAME":"EARTH","FILE":"3623738","REF_FRAME":"TEME","OBJECT_TYPE":"PAYLOAD","LAUNCH_DATE":"2021-05-15","ELEMENT_SET_NO":"999","TLE_LINE2":"2 48578  53.0545 285.1213 0002388  46.1446 313.9740 15.06396329 78752","PERIOD":"95.592","PERIAPSIS":"545.571","MEAN_MOTION_DDOT":"0.0000000000000","MEAN_MOTION_DOT":"0.00000080","MEAN_ANOMALY":"313.9740","OBJECT_NAME":"STARLINK-2232","APOAPSIS":"548.879","OBJECT_ID":"2021-041AB","EPHEMERIS_TYPE":"0","ECCENTRICITY":"0.00023880","EPOCH":"2022-10-19T17:14:01.849344","INCLINATION":"53.0545","SEMIMAJOR_AXIS":"6925.360","DECAY_DATE":null,"REV_AT_EPOCH":"7875","GP_ID":"215620949","BSTAR":"0.00002432400000","COUNTRY_CODE":"US","ARG_OF_PERICENTER":"46.1446","NORAD_CAT_ID":"48578","CLASSIFICATION_TYPE":"U","MEAN_ELEMENT_THEORY":"SGP4","RA_OF_ASC_NODE":"285.1213","TLE_LINE1":"1 48578U 21041AB  22292.71807696  .00000080  00000-0  24324-4 0  9998","RCS_SIZE":"LARGE","SITE":"AFETR"},{"BSTAR":"-0.00002694500000","GP_ID":"215579412","CLASSIFICATION_TYPE":"U","NORAD_CAT_ID":"48579","ARG_OF_PERICENTER":"48.0957","COUNTRY_CODE":"US","TLE_LINE1":"1 48579U 21041AC  22292.47843474 -.00000683  00000-0 -26945-4 0  9998","RA_OF_ASC_NODE":"285.6855","MEAN_ELEMENT_THEORY":"SGP4","SITE":"AFETR","RCS_SIZE":"LARGE","EPOCH":"2022-10-19T11:28:56.761536","ECCENTRICITY":"0.00019760","EPHEMERIS_TYPE":"0","REV_AT_EPOCH":"7872","DECAY_DATE":null,"SEMIMAJOR_AXIS":"6925.395","INCLINATION":"53.0552","PERIOD":"95.593","PERIAPSIS":"545.891","TLE_LINE2":"2 48579  53.0552 285.6855 0001976  48.0957 312.0200 15.06384873 78727","MEAN_MOTION_DDOT":"0.0000000000000","MEAN_MOTION_DOT":"-0.00000683","APOAPSIS":"548.628","OBJECT_ID":"2021-041AC","OBJECT_NAME":"STARLINK-2233","MEAN_ANOMALY":"312.0200","MEAN_MOTION":"15.06384873","TIME_SYSTEM":"UTC","REF_FRAME":"TEME","OBJECT_TYPE":"PAYLOAD","FILE":"3623062","CENTER_NAME":"EARTH","ELEMENT_SET_NO":"999","LAUNCH_DATE":"2021-05-15"},{"MEAN_MOTION_DOT":"0.00000502","OBJECT_NAME":"STARLINK-2234","MEAN_ANOMALY":"300.5519","APOAPSIS":"548.154","OBJECT_ID":"2021-041AD","TLE_LINE2":"2 48580  53.0538 258.7515 0001409  59.5609 300.5519 15.06411598 79595","PERIOD":"95.591","PERIAPSIS":"546.202","MEAN_MOTION_DDOT":"0.0000000000000","CENTER_NAME":"EARTH","OBJECT_TYPE":"PAYLOAD","REF_FRAME":"TEME","FILE":"3623320","LAUNCH_DATE":"2021-05-15","ELEMENT_SET_NO":"999","TIME_SYSTEM":"UTC","MEAN_MOTION":"15.06411598","RA_OF_ASC_NODE":"258.7515","MEAN_ELEMENT_THEORY":"SGP4","TLE_LINE1":"1 48580U 21041AD  22292.90919500  .00000502  00000-0  52570-4 0  9993","SITE":"AFETR","RCS_SIZE":"LARGE","GP_ID":"215589568","BSTAR":"0.00005257000000","CLASSIFICATION_TYPE":"U","NORAD_CAT_ID":"48580","ARG_OF_PERICENTER":"59.5609","COUNTRY_CODE":"US","INCLINATION":"53.0538","REV_AT_EPOCH":"7959","DECAY_DATE":null,"SEMIMAJOR_AXIS":"6925.313","EPOCH":"2022-10-19T21:49:14.448000","EPHEMERIS_TYPE":"0","ECCENTRICITY":"0.00014090"},{"FILE":"3623738","REF_FRAME":"TEME","OBJECT_TYPE":"PAYLOAD","CENTER_NAME":"EARTH","ELEMENT_SET_NO":"999","LAUNCH_DATE":"2021-05-15","MEAN_MOTION":"15.06390595","TIME_SYSTEM":"UTC","MEAN_MOTION_DOT":"-0.00000648","OBJECT_ID":"2021-041AE","APOAPSIS":"548.271","MEAN_ANOMALY":"286.0715","OBJECT_NAME":"STARLINK-2235","PERIAPSIS":"546.213","PERIOD":"95.593","TLE_LINE2":"2 48581  53.0547 250.1066 0001486  74.0438 286.0715 15.06390595 79241","MEAN_MOTION_DDOT":"0.0000000000000","SEMIMAJOR_AXIS":"6925.377","DECAY_DATE":null,"REV_AT_EPOCH":"7924","INCLINATION":"53.0547","EPHEMERIS_TYPE":"0","ECCENTRICITY":"0.00014860","EPOCH":"2022-10-19T14:31:23.509344","TLE_LINE1":"1 48581U 21041AE  22292.60513321 -.00000648  00000-0 -24623-4 0  9993","MEAN_ELEMENT_THEORY":"SGP4","RA_OF_ASC_NODE":"250.1066","RCS_SIZE":"LARGE","SITE":"AFETR","GP_ID":"215620198","BSTAR":"-0.00002462300000","ARG_OF_PERICENTER":"74.0438","COUNTRY_CODE":"US","NORAD_CAT_ID":"48581","CLASSIFICATION_TYPE":"U"},{"INCLINATION":"53.0534","REV_AT_EPOCH":"7923","SEMIMAJOR_AXIS":"6925.363","DECAY_DATE":null,"EPOCH":"2022-10-19T14:04:52.325472","EPHEMERIS_TYPE":"0","ECCENTRICITY":"0.00013920","SITE":"AFETR","RCS_SIZE":"LARGE","MEAN_ELEMENT_THEORY":"SGP4","RA_OF_ASC_NODE":"250.3466","TLE_LINE1":"1 48582U 21041AF  22292.58671673 -.00000687  00000-0 -27225-4 0  9990","CLASSIFICATION_TYPE":"U","NORAD_CAT_ID":"48582","ARG_OF_PERICENTER":"64.8174","COUNTRY_CODE":"US","GP_ID":"215621449","BSTAR":"-0.00002722500000","LAUNCH_DATE":"2021-05-15","ELEMENT_SET_NO":"999","CENTER_NAME":"EARTH","OBJECT_TYPE":"PAYLOAD","REF_FRAME":"TEME","FILE":"3623738","TIME_SYSTEM":"UTC","MEAN_MOTION":"15.06395192","OBJECT_NAME":"STARLINK-2236","MEAN_ANOMALY":"295.2959","APOAPSIS":"548.192","OBJECT_ID":"2021-041AF","MEAN_MOTION_DOT":"-0.00000687","MEAN_MOTION_DDOT":"0.0000000000000","TLE_LINE2":"2 48582  53.0534 250.3466 0001392  64.8174 295.2959 15.06395192 79233","PERIAPSIS":"546.264","PERIOD":"95.592"},{"MEAN_MOTION":"15.06402203","TIME_SYSTEM":"UTC","FILE":"3623738","REF_FRAME":"TEME","OBJECT_TYPE":"PAYLOAD","CENTER_NAME":"EARTH","ELEMENT_SET_NO":"999","LAUNCH_DATE":"2021-05-15","PERIAPSIS":"545.654","PERIOD":"95.592","TLE_LINE2":"2 48583  53.0541 294.5719 0002242  49.0800 311.0382 15.06402203 78620","MEAN_MOTION_DDOT":"0.0000000000000","MEAN_MOTION_DOT":"0.00000410","APOAPSIS":"548.759","OBJECT_ID":"2021-041AG","MEAN_ANOMALY":"311.0382","OBJECT_NAME":"STARLINK-2237","ECCENTRICITY":"0.00022420","EPHEMERIS_TYPE":"0","EPOCH":"2022-10-19T17:23:13.392384","SEMIMAJOR_AXIS":"6925.342","DECAY_DATE":null,"REV_AT_EPOCH":"7862","INCLINATION":"53.0541","BSTAR":"0.00004643300000","GP_ID":"215621196","ARG_OF_PERICENTER":"49.0800","COUNTRY_CODE":"US","CLASSIFICATION_TYPE":"U","NORAD_CAT_ID":"48583","TLE_LINE1":"1 48583U 21041AG  22292.72446056  .00000410  00000-0  46433-4 0  9996","RA_OF_ASC_NODE":"294.5719","MEAN_ELEMENT_THEORY":"SGP4","RCS_SIZE":"LARGE","SITE":"AFETR"},{"BSTAR":"0.00032788000000","GP_ID":"215620448","ARG_OF_PERICENTER":"40.1845","COUNTRY_CODE":"US","CLASSIFICATION_TYPE":"U","NORAD_CAT_ID":"48584","RA_OF_ASC_NODE":"294.7003","MEAN_ELEMENT_THEORY":"SGP4","TLE_LINE1":"1 48584U 21041AH  22292.69865908  .00004606  00000-0  32788-3 0  9992","RCS_SIZE":"LARGE","SITE":"AFETR","EPHEMERIS_TYPE":"0","ECCENTRICITY":"0.00024810","EPOCH":"2022-10-19T16:46:04.144512","INCLINATION":"53.0532","DECAY_DATE":null,"SEMIMAJOR_AXIS":"6925.337","REV_AT_EPOCH":"7861","TLE_LINE2":"2 48584  53.0532 294.7003 0002481  40.1845 319.9327 15.06403734 78610","PERIAPSIS":"545.484","PERIOD":"95.592","MEAN_MOTION_DDOT":"0.0000000000000","MEAN_MOTION_DOT":"0.00004606","MEAN_ANOMALY":"319.9327","OBJECT_NAME":"STARLINK-2238","APOAPSIS":"548.920","OBJECT_ID":"2021-041AH","TIME_SYSTEM":"UTC","MEAN_MOTION":"15.06403734","CENTER_NAME":"EARTH","FILE":"3623738","OBJECT_TYPE":"PAYLOAD","REF_FRAME":"TEME","LAUNCH_DATE":"2021-05-15","ELEMENT_SET_NO":"999"},{"ECCENTRICITY":"0.00025380","EPHEMERIS_TYPE":"0","EPOCH":"2022-10-19T17:01:59.684448","DECAY_DATE":null,"SEMIMAJOR_AXIS":"6925.344","REV_AT_EPOCH":"7861","INCLINATION":"53.0539","GP_ID":"215620698","BSTAR":"0.00008514900000","COUNTRY_CODE":"US","ARG_OF_PERICENTER":"38.6338","CLASSIFICATION_TYPE":"U","NORAD_CAT_ID":"48585","TLE_LINE1":"1 48585U 21041AJ  22292.70971857  .00000987  00000-0  85149-4 0  9994","RA_OF_ASC_NODE":"294.6494","MEAN_ELEMENT_THEORY":"SGP4","RCS_SIZE":"LARGE","SITE":"AFETR","MEAN_MOTION":"15.06401610","TIME_SYSTEM":"UTC","FILE":"3623738","OBJECT_TYPE":"PAYLOAD","REF_FRAME":"TEME","CENTER_NAME":"EARTH","ELEMENT_SET_NO":"999","LAUNCH_DATE":"2021-05-15","PERIOD":"95.592","PERIAPSIS":"545.451","TLE_LINE2":"2 48585  53.0539 294.6494 0002538  38.6338 321.4832 15.06401610 78613","MEAN_MOTION_DDOT":"0.0000000000000","MEAN_MOTION_DOT":"0.00000987","OBJECT_ID":"2021-041AJ","APOAPSIS":"548.966","MEAN_ANOMALY":"321.4832","OBJECT_NAME":"STARLINK-2240"},{"TIME_SYSTEM":"UTC","MEAN_MOTION":"15.06405934","LAUNCH_DATE":"2021-05-15","ELEMENT_SET_NO":"999","CENTER_NAME":"EARTH","OBJECT_TYPE":"PAYLOAD","REF_FRAME":"TEME","FILE":"3623738","MEAN_MOTION_DDOT":"0.0000000000000","TLE_LINE2":"2 48586  53.0548 294.6741 0002129  42.2395 317.8758 15.06405934 78618","PERIOD":"95.592","PERIAPSIS":"545.721","OBJECT_NAME":"STARLINK-2241","MEAN_ANOMALY":"317.8758","APOAPSIS":"548.670","OBJECT_ID":"2021-041AK","MEAN_MOTION_DOT":"0.00000768","EPOCH":"2022-10-19T16:51:21.718080","ECCENTRICITY":"0.00021290","EPHEMERIS_TYPE":"0","INCLINATION":"53.0548","REV_AT_EPOCH":"7861","DECAY_DATE":null,"SEMIMAJOR_AXIS":"6925.330","NORAD_CAT_ID":"48586","CLASSIFICATION_TYPE":"U","COUNTRY_CODE":"US","ARG_OF_PERICENTER":"42.2395","BSTAR":"0.00007045100000","GP_ID":"215620950","SITE":"AFETR","RCS_SIZE":"MEDIUM","RA_OF_ASC_NODE":"294.6741","MEAN_ELEMENT_THEORY":"SGP4","TLE_LINE1":"1 48586U 21041AK  22292.70233470  .00000768  00000-0  70451-4 0  9994"}];
